H1 CPF 01  gfz 2022 12 13 01  8471 terrasarx 
H2 0702601  6201 31698    2022 12 13 00 59 42 2022 12 18 00 00 42   120 1 1  0 0 0
H9
10 0 59929  25902.000000  0   -5211296.854   2186181.342   3930026.247
10 0 59929  26022.000000  0   -4616937.122   2141013.652   4632983.372
10 0 59929  26142.000000  0   -3943107.593   2047333.953   5254398.867
10 0 59929  26262.000000  0   -3202455.994   1905512.203   5783370.535
10 0 59929  26382.000000  0   -2408774.002   1716989.970   6210632.284
10 0 59929  26502.000000  0   -1576732.778   1484270.571   6528711.442
10 0 59929  26622.000000  0    -721606.820   1210886.289   6732052.547
10 0 59929  26742.000000  0     141007.790    901344.308   6817107.247
10 0 59929  26862.000000  0     995476.991    561051.816   6782392.078
10 0 59929  26982.000000  0    1826410.809    196221.765   6628512.530
10 0 59929  27102.000000  0    2618939.213   -186239.696   6358153.659
10 0 59929  27222.000000  0    3358978.493   -578862.995   5976037.485
10 0 59929  27342.000000  0    4033484.164   -973759.272   5488845.392
10 0 59929  27462.000000  0    4630684.994  -1362777.462   4905107.064
10 0 59929  27582.000000  0    5140294.396  -1737671.033   4235057.295
10 0 59929  27702.000000  0    5553696.369  -2090270.644   3490461.384
10 0 59929  27822.000000  0    5864100.363  -2412660.509   2684410.145
10 0 59929  27942.000000  0    6066660.303  -2697353.566   1831088.597
10 0 59929  28062.000000  0    6158556.378  -2937460.620    945523.350
10 0 59929  28182.000000  0    6139037.234  -3126850.445     43311.174
10 0 59929  28302.000000  0    6009419.168  -3260295.445   -859663.827
10 0 59929  28422.000000  0    5773044.141  -3333599.670  -1747519.781
10 0 59929  28542.000000  0    5435195.083  -3343704.826  -2604664.518
10 0 59929  28662.000000  0    5002974.808  -3288773.135  -3416074.950
10 0 59929  28782.000000  0    4485149.894  -3168244.767  -4167563.408
10 0 59929  28902.000000  0    3891964.664  -2982869.381  -4846025.205
10 0 59929  29022.000000  0    3234929.258  -2734709.911  -5439662.770
10 0 59929  29142.000000  0    2526589.410  -2427120.136  -5938181.502
10 0 59929  29262.000000  0    1780284.151  -2064698.596  -6332957.952
10 0 59929  29382.000000  0    1009893.257  -1653217.639  -6617179.826
10 0 59929  29502.000000  0     229579.600  -1199528.928  -6785952.495
10 0 59929  29622.000000  0    -546467.266   -711449.537  -6836373.722
10 0 59929  29742.000000  0   -1304283.073   -197629.512  -6767577.513
10 0 59929  29862.000000  0   -2030374.506    332597.939  -6580747.183
10 0 59929  29982.000000  0   -2711953.787    869381.538  -6279096.394
10 0 59929  30102.000000  0   -3337159.136   1402529.974  -5867820.123
10 0 59929  30222.000000  0   -3895259.874   1921700.710  -5354015.547
10 0 59929  30342.000000  0   -4376843.773   2416597.430  -4746571.467
10 0 59929  30462.000000  0   -4773981.294   2877173.208  -4056025.016
10 0 59929  30582.000000  0   -5080362.973   3293833.565  -3294388.453
10 0 59929  30702.000000  0   -5291408.725   3657637.039  -2474948.839
10 0 59929  30822.000000  0   -5404344.582   3960488.705  -1612040.262
10 0 59929  30942.000000  0   -5418245.186   4195320.657   -720793.649
10 0 59929  31062.000000  0   -5334039.859   4356255.265    183132.131
10 0 59929  31182.000000  0   -5154481.343   4438747.293   1083832.540
10 0 59929  31302.000000  0   -4884076.071   4439698.669   1965446.886
10 0 59929  31422.000000  0   -4528978.846   4357543.906   2812446.632
10 0 59929  31542.000000  0   -4096854.569   4192305.233   3609916.696
10 0 59929  31662.000000  0   -3596710.936   3945614.653   4343824.215
10 0 59929  31782.000000  0   -3038707.217   3620702.953   5001268.672
10 0 59929  31902.000000  0   -2433942.996   3222356.267   5570709.422
10 0 59929  32022.000000  0   -1794232.219   2756841.755   6042165.855
10 0 59929  32142.000000  0   -1131867.741   2231804.180   6407387.543
10 0 59929  32262.000000  0    -459382.344   1656135.461   6659990.943
10 0 59929  32382.000000  0     210687.795   1039821.630   6795564.860
10 0 59929  32502.000000  0     866036.730    393768.087   6811742.772
10 0 59929  32622.000000  0    1494813.643   -270392.881   6708241.115
10 0 59929  32742.000000  0    2085836.152   -940510.746   6486864.752
10 0 59929  32862.000000  0    2628788.879  -1604138.401   6151477.754
10 0 59929  32982.000000  0    3114405.166  -2248762.794   5707941.261
10 0 59929  33102.000000  0    3534628.284  -2862041.893   5164016.385
10 0 59929  33222.000000  0    3882748.972  -3432042.869   4529234.600
10 0 59929  33342.000000  0    4153517.230  -3947477.882   3814735.814
10 0 59929  33462.000000  0    4343225.621  -4397932.357   3033075.911
10 0 59929  33582.000000  0    4449762.224  -4774080.604   2198006.643
10 0 59929  33702.000000  0    4472631.575  -5067882.922   1324230.632
10 0 59929  33822.000000  0    4412942.023  -5272759.421    427136.870
10 0 59929  33942.000000  0    4273359.730  -5383735.502   -477477.624
10 0 59929  34062.000000  0    4058032.525  -5397556.709  -1373693.944
10 0 59929  34182.000000  0    3772482.584  -5312768.703  -2245761.018
10 0 59929  34302.000000  0    3423472.129  -5129760.000  -3078379.262
10 0 59929  34422.000000  0    3018846.276  -4850767.382  -3856973.995
10 0 59929  34542.000000  0    2567356.246  -4479844.786  -4567951.684
10 0 59929  34662.000000  0    2078468.282  -4022796.500  -5198934.788
10 0 59929  34782.000000  0    1562164.147  -3487076.434  -5738969.783
10 0 59929  34902.000000  0    1028737.792  -2881659.167  -6178707.117
10 0 59929  35022.000000  0     488591.149  -2216884.586  -6510552.757
10 0 59929  35142.000000  0     -47966.630  -1504277.775  -6728788.583
10 0 59929  35262.000000  0    -570911.718   -756348.537  -6829660.620
10 0 59929  35382.000000  0   -1070687.545     13625.622  -6811436.187
10 0 59929  35502.000000  0   -1538375.310    791829.849  -6674429.620
10 0 59929  35622.000000  0   -1965849.468   1564153.325  -6420997.227
10 0 59929  35742.000000  0   -2345915.652   2316438.749  -6055501.064
10 0 59929  35862.000000  0   -2672431.217   3034736.584  -5584243.005
10 0 59929  35982.000000  0   -2940405.319   3705561.691  -5015366.940
10 0 59929  36102.000000  0   -3146078.004   4316147.647  -4358729.967
10 0 59929  36222.000000  0   -3286975.577   4854693.829  -3625741.184
10 0 59929  36342.000000  0   -3361939.705   5310598.462  -2829171.047
10 0 59929  36462.000000  0   -3371131.216   5674674.207  -1982936.020
10 0 59929  36582.000000  0   -3316008.114   5939342.757  -1101858.144
10 0 59929  36702.000000  0   -3199275.404   6098800.457   -201402.982
10 0 59929  36822.000000  0   -3024810.632   6149149.952    702595.736
10 0 59929  36942.000000  0   -2797565.605   6088497.127   1594223.594
10 0 59929  37062.000000  0   -2523442.800   5917005.279   2457776.946
10 0 59929  37182.000000  0   -2209152.915   5636905.982   3278048.284
10 0 59929  37302.000000  0   -1862058.442   5252468.867   4040600.127
10 0 59929  37422.000000  0   -1490006.576   4769931.289   4732023.269
10 0 59929  37542.000000  0   -1101154.728   4197389.501   5340174.364
10 0 59929  37662.000000  0    -703793.090   3544653.865   5854387.467
10 0 59929  37782.000000  0    -306170.236   2823072.346   6265657.108
10 0 59929  37902.000000  0      83676.385   2045326.092   6566789.866
10 0 59929  38022.000000  0     458081.063   1225202.633   6752524.375
10 0 59929  38142.000000  0     809899.306    377348.372   6819617.613
10 0 59929  38262.000000  0    1132642.807   -482992.517   6766897.181
10 0 59929  38382.000000  0    1420598.316  -1340251.341   6595281.726
10 0 59929  38502.000000  0    1668928.882  -2178816.090   6307766.089
10 0 59929  38622.000000  0    1873755.559  -2983315.935   5909373.068
10 0 59929  38742.000000  0    2032218.485  -3738905.076   5407070.702
10 0 59929  38862.000000  0    2142515.988  -4431539.950   4809655.434
10 0 59929  38982.000000  0    2203921.632  -5048244.625   4127603.986
10 0 59929  39102.000000  0    2216779.939  -5577362.143   3372894.518
10 0 59929  39222.000000  0    2182477.500  -6008783.965   2558797.175
10 0 59929  39342.000000  0    2103391.332  -6334151.388   1699639.274
10 0 59929  39462.000000  0    1982817.293  -6547024.027    810549.737
10 0 59929  39582.000000  0    1824878.080  -6643013.356    -92812.748
10 0 59929  39702.000000  0    1634413.959  -6619877.304   -994543.995
10 0 59929  39822.000000  0    1416856.985  -6477568.841  -1878785.949
10 0 59929  39942.000000  0    1178093.150  -6218239.344  -2730012.889
10 0 59929  40062.000000  0     924317.583  -5846197.825  -3533310.354
10 0 59929  40182.000000  0     661887.428  -5367827.722  -4274638.308
10 0 59929  40302.000000  0     397173.196  -4791465.005  -4941075.274
10 0 59929  40422.000000  0     136413.658  -4127240.721  -5521037.990
10 0 59929  40542.000000  0    -114422.415  -3386892.434  -6004474.695
10 0 59929  40662.000000  0    -349764.899  -2583548.659  -6383028.723
10 0 59929  40782.000000  0    -564558.885  -1731491.670  -6650171.472
10 0 59929  40902.000000  0    -754367.370   -845903.341  -6801304.055
10 0 59929  41022.000000  0    -915458.246     57402.424  -6833828.599
10 0 59929  41142.000000  0   -1044874.541    962256.707  -6747186.840
10 0 59929  41262.000000  0   -1140487.238   1852417.287  -6542868.385
10 0 59929  41382.000000  0   -1201029.681   2711852.703  -6224387.673
10 0 59929  41502.000000  0   -1226113.273   3525025.406  -5797231.702
10 0 59929  41622.000000  0   -1216224.531   4277170.783  -5268775.057
10 0 59929  41742.000000  0   -1172702.814   4954566.275  -4648164.197
10 0 59929  41862.000000  0   -1097699.773   5544787.480  -3946170.125
10 0 59929  41982.000000  0    -994120.302   6036944.273  -3175010.159
10 0 59929  42102.000000  0    -865546.016   6421891.824  -2348142.378
10 0 59929  42222.000000  0    -716142.687   6692413.103  -1480034.604
10 0 59929  42342.000000  0    -550553.954   6843365.839   -585910.892
99
